NORAD_CAT_ID,OBJECT_NAME,OBJECT_TYPE,EPOCH,MEAN_MOTION,ECCENTRICITY,INCLINATION,RA_OF_ASC_NODE,ARG_OF_PERICENTER,MEAN_ANOMALY,BSTAR,MEAN_MOTION_DOT,MEAN_MOTION_DDOT,TLE_LINE0,TLE_LINE1,TLE_LINE2,SEMIMAJOR_AXIS,PERIOD,APOGEE,PERIGEE,DECAYED
52482.0,STARLINK-3813,PAYLOAD,2022-08-11 22:00:00,15.08871916,0.00018,53.2157,150.9505,49.577,314.8436,-0.0013474,-0.00021687,0.0,0 STARLINK-3813,1 52482U 22049AH  22223.91667824 -.00021687  00000-0 -13474-2 0  9999,2 52482  53.2157 150.9505 0001800  49.5770 314.8436 15.08871916 15429,6917.783,95.436,540.893,538.403,0.0
52482.0,STARLINK-3813,PAYLOAD,2022-08-12 14:00:01,15.08834335,0.0001726,53.2156,147.9573,47.4235,340.2439,0.0020626,0.00032686,0.0,0 STARLINK-3813,1 52482U 22049AH  22224.58334491  .00032686  00000-0  20626-2 0  9990,2 52482  53.2156 147.9573 0001726  47.4235 340.2439 15.08834335  1301,6917.898,95.438,540.957,538.569,0.0
52482.0,STARLINK-3813,PAYLOAD,2022-08-12 22:00:01,15.08847828,0.0001883,53.2157,146.4616,49.7015,349.5496,-0.0010332,-0.00016698,0.0,0 STARLINK-3813,1 52482U 22049AH  22224.91668981 -.00016698  00000-0 -10332-2 0  9991,2 52482  53.2157 146.4616 0001883  49.7015 349.5496 15.08847828  1305,6917.856,95.437,541.024,538.419,0.0
52482.0,STARLINK-3813,PAYLOAD,2022-08-13 06:00:02,15.08826756,0.0002011,53.2155,144.9664,44.6485,6.2103,0.0030367,0.00048356,0.0,0 STARLINK-3813,1 52482U 22049AH  22225.25002315  .00048356  00000-0  30367-2 0  9996,2 52482  53.2155 144.9664 0002011  44.6485   6.2103 15.08826756 15627,6917.920999999999,95.438,541.177,538.395,0.0
52482.0,STARLINK-3813,PAYLOAD,2022-08-13 14:00:01,15.08836374,0.0001861,53.2157,143.4682,49.5852,12.8179,0.0021939,0.00034797,0.0,0 STARLINK-3813,1 52482U 22049AH  22225.58334491  .00034797  00000-0  21939-2 0  9994,2 52482  53.2157 143.4682 0001861  49.5852  12.8179 15.08836374  1300,6917.891,95.438,541.044,538.469,0.0
52482.0,STARLINK-3813,PAYLOAD,2022-08-13 22:00:00,15.088901500000002,0.0001950999999999,53.2158,141.9726,49.7638,24.2391,-0.0042061,-0.00066702,0.0,0 STARLINK-3813,1 52482U 22049AH  22225.91667824 -.00066702  00000-0 -42061-2 0  9992,2 52482  53.2158 141.9726 0001951  49.7638  24.2391 15.08890150  1302,6917.727,95.434,540.942,538.242,0.0
52482.0,STARLINK-3813,PAYLOAD,2022-08-14 14:00:01,15.08839943,0.0001837,53.2159,138.9789,48.1503,49.0984,0.0017059,0.00026966,0.0,0 STARLINK-3813,1 52482U 22049AH  22226.58334491  .00026966  00000-0  17059-2 0  9992,2 52482  53.2159 138.9789 0001837  48.1503  49.0984 15.08839943  1301,6917.880999999999,95.438,541.016,538.475,0.0
52482.0,STARLINK-3813,PAYLOAD,2022-08-14 22:00:00,15.088628699999996,0.0001911999999999,53.2159,137.4832,47.6821,61.1711,-0.0026674,-0.00042517,0.0,0 STARLINK-3813,1 52482U 22049AH  22226.91667824 -.00042517  00000-0 -26674-2 0  9993,2 52482  53.2159 137.4832 0001912  47.6821  61.1711 15.08862870  1303,6917.81,95.436,540.998,538.3530000000002,0.0
52482.0,STARLINK-3813,PAYLOAD,2022-08-15 06:00:00,15.08837573,0.0002003,53.2157,135.9877,41.7685,78.6874,0.00042323,6.454e-05,0.0,0 STARLINK-3813,1 52482U 22049AH  22227.25001157  .00006454  00000-0  42323-3 0  9990,2 52482  53.2157 135.9877 0002003  41.7685  78.6874 15.08837573 15926,6917.888000000001,95.438,541.138,538.367,0.0
52482.0,STARLINK-3813,PAYLOAD,2022-08-15 14:00:01,15.0880334,0.0001758,53.2159,134.4895,45.7653,86.2935,0.0021146,0.00033493,0.0,0 STARLINK-3813,1 52482U 22049AH  22227.58334491  .00033493  00000-0  21146-2 0  9998,2 52482  53.2159 134.4895 0001758  45.7653  86.2935 15.08803340  1302,6917.9919999999975,95.44,541.0740000000002,538.641,0.0
52482.0,STARLINK-3813,PAYLOAD,2022-08-15 22:00:00,15.08842032,0.0001882,53.216,132.994,45.9496,97.6757,-0.0014165,-0.00022763,0.0,0 STARLINK-3813,1 52482U 22049AH  22227.91667824 -.00022763  00000-0 -14165-2 0  9997,2 52482  53.2160 132.9940 0001882  45.9496  97.6757 15.08842032  1302,6917.874,95.437,541.0409999999998,538.437,0.0
52482.0,STARLINK-3813,PAYLOAD,2022-08-16 00:00:00,15.08832991,0.0001948,53.2158,132.6204,44.4953,192.0299,-0.00049817,-8.206e-05,0.0,0 STARLINK-3813,1 52482U 22049AH  22228.00001157 -.00008206  00000-0 -49817-3 0  9998,2 52482  53.2158 132.6204 0001948  44.4953 192.0299 15.08832991 16045,6917.901999999999,95.438,541.114,538.419,0.0
52482.0,STARLINK-3813,PAYLOAD,2022-08-16 14:00:01,15.08820097,0.0001785,53.2157,130.0001,47.807,119.0029,0.0028343,0.00045084,0.0,0 STARLINK-3813,1 52482U 22049AH  22228.58334491  .00045084  00000-0  28343-2 0  9994,2 52482  53.2157 130.0001 0001785  47.8070 119.0029 15.08820097  1304,6917.941,95.439,541.0409999999998,538.571,0.0
52482.0,STARLINK-3813,PAYLOAD,2022-08-16 22:00:00,15.08862494,0.0001894,53.2158,128.5048,47.2576,131.1438,-0.0012469,-0.0002008999999999,0.0,0 STARLINK-3813,1 52482U 22049AH  22228.91667824 -.00020090  00000-0 -12469-2 0  9994,2 52482  53.2158 128.5048 0001894  47.2576 131.1438 15.08862494 16171,6917.812,95.436,540.987,538.366,0.0
52482.0,STARLINK-3813,PAYLOAD,2022-08-17 16:00:00,15.08822635,0.0001723,53.2156,125.1365,49.8197,244.6968,0.0024859,0.00039478,0.0,0 STARLINK-3813,1 52482U 22049AH  22229.66667824  .00039478  00000-0  24859-2 0  9991,2 52482  53.2156 125.1365 0001723  49.8197 244.6968 15.08822635  1302,6917.933000000001,95.439,540.99,538.607,0.0
52482.0,STARLINK-3813,PAYLOAD,2022-08-18 08:00:01,15.08880085,0.000179,53.215,122.1448,43.8773,273.8405,-0.0039509,-0.00062689,0.0,0 STARLINK-3813,1 52482U 22049AH  22230.33334491 -.00062689  00000-0 -39509-2 0  9998,2 52482  53.2150 122.1448 0001790  43.8773 273.8405 15.08880085 16391,6917.7580000000025,95.435,540.861,538.385,0.0
52482.0,STARLINK-3813,PAYLOAD,2022-08-18 14:00:01,15.08817592,0.0001646,53.215,121.0213,47.9345,188.5048,0.0032438,0.00051684,0.0,0 STARLINK-3813,1 52482U 22049AH  22230.58334491  .00051684  00000-0  32438-2 0  9990,2 52482  53.2150 121.0213 0001646  47.9345 188.5048 15.08817592  1302,6917.949000000001,95.439,540.953,538.675,0.0
52482.0,STARLINK-3813,PAYLOAD,2022-08-18 22:00:00,15.08858638,0.0001761,53.2151,119.5265,46.002,202.028,-0.00094656,-0.00015329,0.0,0 STARLINK-3813,1 52482U 22049AH  22230.91667824 -.00015329  00000-0 -94656-3 0  9995,2 52482  53.2151 119.5265 0001761  46.0020 202.0280 15.08858638  1306,6917.823,95.436,540.9069999999998,538.47,0.0
52482.0,STARLINK-3813,PAYLOAD,2022-08-19 14:00:01,15.087907500000002,0.0001706999999999,53.2148,116.532,50.4045,220.8443,0.0026633,0.00042296,0.0,0 STARLINK-3813,1 52482U 22049AH  22231.58334491  .00042296  00000-0  26633-2 0  9990,2 52482  53.2148 116.5320 0001707  50.4045 220.8443 15.08790750  1306,6918.031,95.441,541.077,538.715,0.0
52482.0,STARLINK-3813,PAYLOAD,2022-08-19 22:00:00,15.08814894,0.0001884,53.2149,115.0373,47.9307,234.864,-0.0007476,-0.00012158,0.0,0 STARLINK-3813,1 52482U 22049AH  22231.91667824 -.00012158  00000-0 -74760-3 0  9997,2 52482  53.2149 115.0373 0001884  47.9307 234.8640 15.08814894 16639,6917.956999999999,95.439,541.125,538.519,0.0
52482.0,STARLINK-3813,PAYLOAD,2022-08-20 14:00:01,15.08804615,0.0001809,53.215,112.043,52.0405,253.8922,0.0032876,0.00052373,0.0,0 STARLINK-3813,1 52482U 22049AH  22232.58334491  .00052373  00000-0  32876-2 0  9994,2 52482  53.2150 112.0430 0001809  52.0405 253.8922 15.08804615  1307,6917.989000000001,95.44,541.105,538.602,0.0
52482.0,STARLINK-3813,PAYLOAD,2022-08-20 16:00:00,15.08823009,0.000183,53.2152,111.6691,53.0107,345.8088,0.0019090999999999,0.00030212,0.0,0 STARLINK-3813,1 52482U 22049AH  22232.66667824  .00030212  00000-0  19091-2 0  9994,2 52482  53.2152 111.6691 0001830  53.0107 345.8088 15.08823009 16744,6917.932,95.439,541.063,538.531,0.0
52482.0,STARLINK-3813,PAYLOAD,2022-08-20 22:00:00,15.08836724,0.0001993,53.2151,110.5483,48.8072,268.6972,-0.0006803,-0.00011098,0.0,0 STARLINK-3813,1 52482U 22049AH  22232.91667824 -.00011098  00000-0 -68030-3 0  9993,2 52482  53.2151 110.5483 0001993  48.8072 268.6972 15.08836724  1301,6917.89,95.438,541.134,538.377,0.0
52482.0,STARLINK-3813,PAYLOAD,2022-08-21 06:00:00,15.08849291,0.0001998,53.2152,109.0517,46.6356,282.447,-0.0013343,-0.00021467,0.0,0 STARLINK-3813,1 52482U 22049AH  22233.25001157 -.00021467  00000-0 -13343-2 0  9999,2 52482  53.2152 109.0517 0001998  46.6356 282.4470 15.08849291 16833,6917.852,95.437,541.099,538.335,0.0
52482.0,STARLINK-3813,PAYLOAD,2022-08-21 14:00:01,15.08823523,0.0001909999999999,53.2155,107.5539,53.3147,287.3729,0.0030471,0.00048519,0.0,0 STARLINK-3813,1 52482U 22049AH  22233.58334491  .00048519  00000-0  30471-2 0  9991,2 52482  53.2155 107.5539 0001910  53.3147 287.3729 15.08823523  1307,6917.931,95.439,541.117,538.474,0.0
52482.0,STARLINK-3813,PAYLOAD,2022-08-21 22:00:00,15.08853733,0.0002093,53.2156,106.0592,49.68899999999999,302.594,-0.00071113,-0.00011593,0.0,0 STARLINK-3813,1 52482U 22049AH  22233.91667824 -.00011593  00000-0 -71113-3 0  9990,2 52482  53.2156 106.0592 0002093  49.6890 302.5940 15.08853733  1308,6917.8380000000025,95.437,541.151,538.256,0.0
52482.0,STARLINK-3813,PAYLOAD,2022-08-22 12:00:00,15.08816158,0.0001896,53.216,103.439,51.5217,231.0896,0.0020853,0.00033034,0.0,0 STARLINK-3813,1 52482U 22049AH  22234.50001157  .00033034  00000-0  20853-2 0  9993,2 52482  53.2160 103.4390 0001896  51.5217 231.0896 15.08816158  1301,6917.953,95.439,541.13,538.507,0.0
52482.0,STARLINK-3813,PAYLOAD,2022-08-22 22:00:00,15.08839704,0.0002081,53.2162,101.5702,48.9539,338.1356,-0.00073211,-0.00011921,0.0,0 STARLINK-3813,1 52482U 22049AH  22234.91667824 -.00011921  00000-0 -73211-3 0  9997,2 52482  53.2162 101.5702 0002081  48.9539 338.1356 15.08839704  1305,6917.880999999999,95.438,541.186,538.307,0.0
52482.0,STARLINK-3813,PAYLOAD,2022-08-23 06:00:00,15.08855047,0.0002032999999999,53.2162,100.0733,48.0427,350.6298,-0.0018359,-0.000294,0.0,0 STARLINK-3813,1 52482U 22049AH  22235.25001157 -.00029400  00000-0 -18359-2 0  9998,2 52482  53.2162 100.0733 0002033  48.0427 350.6298 15.08855047 17137,6917.834,95.437,541.106,538.293,0.0
